{
"type": "FeatureCollection",
"name": "parks",
"crs": { "type": "name", "properties": { "name": "urn:ogc:def:crs:OGC:1.3:CRS84" } },
"features": [
{ "type": "Feature", "properties": { "id": 1, "name": "Камский индустриальный парк «Мастер»", "district": "Набережные Челны", "address": "г. Набережные Челны, Производственный проезд, 4 (промзона КИП 'Мастер')", "area_ha": 30.0, "free_ha": 5.0, "year": 2007, "profile": "Машиностроение", "rail_access": "Есть", "mw": 45.0, "site": "https://www.kipmaster.ru/" }, "geometry": { "type": "Point", "coordinates": [ 52.4379, 55.7111 ] } },
{ "type": "Feature", "properties": { "id": 2, "name": "Индустриальный парк «М-7»", "district": "Зеленодольский район", "address": "п. Новониколаевский, Овражная, 4", "area_ha": 45.0, "free_ha": 18.0, "year": 2012, "profile": "Логистика", "rail_access": "Нет", "mw": null, "site": "https://m7development.ru/m7" }, "geometry": { "type": "Point", "coordinates": [ 48.9687, 55.8968 ] } },
{ "type": "Feature", "properties": { "id": 3, "name": "Индустриальный парк «Чистополь»", "district": "Чистопольский район", "address": "Булдырское сельское поселение", "area_ha": 292.0, "free_ha": 265.0, "year": 2019, "profile": "Многопрофильный", "rail_access": "Есть", "mw": null, "site": null }, "geometry": { "type": "Point", "coordinates": [ 50.707853163350116, 55.353259049145798 ] } },
{ "type": "Feature", "properties": { "id": 5, "name": "Индустриальный парк «Лаишево»", "district": "Лаишевский район", "address": "д. Пальцовка", "area_ha": 60.0, "free_ha": 60.0, "year": 2021, "profile": "Многопрофильный", "rail_access": "Нет", "mw": null, "site": null }, "geometry": { "type": "Point", "coordinates": [ 49.2725, 55.6294 ] } },
{ "type": "Feature", "properties": { "id": 6, "name": "Индустриальный парк «Набережные Челны»", "district": "Набережные Челны", "address": "Мензелинский тракт, 96", "area_ha": 100.0, "free_ha": 20.0, "year": 2010, "profile": "Машиностроение", "rail_access": "Есть", "mw": null, "site": null }, "geometry": { "type": "Point", "coordinates": [ 52.4218, 55.6918 ] } },
{ "type": "Feature", "properties": { "id": 8, "name": "Промышленный парк «Развитие»", "district": "Набережные Челны", "address": "г. Набережные Челны, Металлургическая, 115", "area_ha": 48.0, "free_ha": null, "year": 2017, "profile": "Муниципальный промышленный парк, greenfield", "rail_access": "Есть", "mw": null, "site": "http://prompark16.ru/" }, "geometry": { "type": "Point", "coordinates": [ 52.489424, 55.690689 ] } },
{ "type": "Feature", "properties": { "id": 9, "name": "Индустриальный парк «Тасма» на территории Технополиса «Химград»", "district": "Казань", "address": "г. Казань, территория Химград, д.126, пом. 35", "area_ha": 14.6, "free_ha": 0.0, "year": 2011, "profile": "Химический профиль", "rail_access": null, "mw": null, "site": "https://promparktit.ru/?page_id=10" }, "geometry": { "type": "Point", "coordinates": [ 49.044825, 55.830255 ] } },
{ "type": "Feature", "properties": { "id": 10, "name": "Промышленный парк «Тюлячи»", "district": "Тюлячинский район", "address": "Тюлячинское СП, 75 км автодороги 'Казань-Шемордан'", "area_ha": 36.07, "free_ha": 26.4218, "year": 2024, "profile": "Высокотехнологичное производство, переработка, пластмассы, композиты, металлоконструкции, тепличное хозяйство", "rail_access": "39 км до ст. Арск", "mw": 7.5, "site": "https://тюлячи.рф/" }, "geometry": { "type": "Point", "coordinates": [ 50.191291, 55.880712 ] } },
{ "type": "Feature", "properties": { "id": 11, "name": "Индустриальный парк «Саба»", "district": "Сабинский район", "address": "пгт Богатые Сабы, Заводской переулок, 59", "area_ha": 60.7, "free_ha": null, "year": 2019, "profile": "Greenfield, промышленная площадка, более 42 производств", "rail_access": null, "mw": null, "site": "https://saba-industrial.ru/ru/" }, "geometry": { "type": "Point", "coordinates": [ 50.449988, 55.986747 ] } },
{ "type": "Feature", "properties": { "id": 12, "name": "Промышленная площадка муниципального уровня №2 по переработке полимеров в Новошешминском муниципальном районе", "district": "Новошешминский район", "address": "с. Новошешминск, ул. Парковая, 9", "area_ha": 8.1, "free_ha": null, "year": null, "profile": null, "rail_access": null, "mw": null, "site": "https://unipark.tatar/our-objects/novosheshminsk/" }, "geometry": { "type": "Point", "coordinates": [ 51.207745845633944, 55.062326293856358 ] } },
{ "type": "Feature", "properties": { "id": 13, "name": "АО «Инновационный индустриальный парк – Технополис Химград (АО «Химград»)", "district": "Казань", "address": "г. Казань, тер. Химград", "area_ha": 131.0, "free_ha": null, "year": 2006, "profile": "Химия, полимеры, нанотехнологии", "rail_access": null, "mw": null, "site": "https://www.himgrad.ru" }, "geometry": { "type": "Point", "coordinates": [ 49.05221, 55.834264 ] } },
{ "type": "Feature", "properties": { "id": 14, "name": "Промышленный парк «Вятка»", "district": "Мамадышский район", "address": "г. Мамадыш, ул. М.Джалиля, д.23/33", "area_ha": 80.0, "free_ha": 80.0, "year": 2016, "profile": "Промышленные объекты, V класс", "rail_access": null, "mw": 4.0, "site": "https://promparkvyatka.ru/" }, "geometry": { "type": "Point", "coordinates": [ 51.382343416704956, 55.661927444088143 ] } },
{ "type": "Feature", "properties": { "id": 15, "name": "Промышленный парк «Дрожжаное»", "district": "Дрожжановский район", "address": "село Старое Дрожжаное, ул. Промышленная", "area_ha": 19.1, "free_ha": 19.1, "year": 2019, "profile": "Гринфилд, полимеры, строительные технологии, металлоконструкции, переработка вторсырья", "rail_access": null, "mw": 1.05, "site": null }, "geometry": { "type": "Point", "coordinates": [ 47.551729085874292, 54.721400522065139 ] } },
{ "type": "Feature", "properties": { "id": 16, "name": "Промышленный парк «Кукмор»", "district": "Кукморский район", "address": "пгт. Кукмор, ул. Производственная", "area_ha": 36.1, "free_ha": 14.59, "year": null, "profile": null, "rail_access": null, "mw": null, "site": "56.186189" }, "geometry": { "type": "Point", "coordinates": [ 50.945282562476535, 56.188461626027276 ] } },
{ "type": "Feature", "properties": { "id": 17, "name": "Промышленный парк «Сокуры»", "district": "Лаишевский район", "address": "с. Сокуры", "area_ha": 21.0, "free_ha": 11.0, "year": 2014, "profile": "гринфилд", "rail_access": null, "mw": null, "site": "55.620174" }, "geometry": { "type": "Point", "coordinates": [ 49.403617629062531, 55.620698521980025 ] } },
{ "type": "Feature", "properties": { "id": 18, "name": "Промышленный парк «Актаныш»", "district": "Актанышский район", "address": "село Актаныш", "area_ha": 4.7, "free_ha": null, "year": null, "profile": "промышленный парк", "rail_access": null, "mw": null, "site": "55.709971" }, "geometry": { "type": "Point", "coordinates": [ 54.085583091701785, 55.709068709412875 ] } },
{ "type": "Feature", "properties": { "id": 20, "name": "Агропромышленный парк «Казань»", "district": "Казань", "address": "г. Казань, улица Аграрная, д. 2", "area_ha": 8.5, "free_ha": null, "year": null, "profile": null, "rail_access": null, "mw": null, "site": "https://agroprompark-kazan.ru/" }, "geometry": { "type": "Point", "coordinates": [ 49.212864, 55.794457 ] } },
{ "type": "Feature", "properties": { "id": 21, "name": "Индустриальный парк «Камские Поляны»", "district": "Нижнекамский район", "address": "пгт Камские Поляны, Промзона", "area_ha": 230.0, "free_ha": 200.0, "year": null, "profile": "Нефтехимия, производство, логистика", "rail_access": null, "mw": null, "site": "https://www.kamapark.ru" }, "geometry": { "type": "Point", "coordinates": [ 51.361231639458438, 55.424896162739877 ] } }
]
}
